{"type":"Topology","arcs":[[[99478,41779],[119,-372],[-325,-8],[80,451],[126,-71]],[[59417,51319],[1054,-1237],[418,-910]],[[60889,49172],[-4,-2195],[313,-1056]],[[61198,45921],[-1056,-809],[-543,116]],[[59599,45228],[-500,1319]],[[59099,46547],[-561,513]],[[58538,47060],[-389,2213]],[[58149,49273],[314,1203]],[[58463,50476],[-14,737]],[[58449,51213],[968,106]],[[47592,67805],[-5,-150]],[[47587,67655],[-1,-873],[-911,30],[9,-1474],[-276,-1180],[-1148,-189]],[[45260,63969],[12,243]],[[45272,64212],[630,46],[239,1262],[694,1840],[757,445]],[[15878,80105],[-1277,1055],[-861,2290]],[[13740,83450],[-1372,2872],[-1534,299],[3,5421]],[[10837,92042],[1245,-469],[2516,852],[4861,-1381],[3195,-115],[899,2385],[1997,-1904],[1872,315],[-30,-1182],[-3269,-2932],[-409,-1103],[1036,-1628],[1635,-1142],[761,-89],[242,-1724],[1350,2522],[-549,1309],[114,2025],[1186,72],[1180,-797],[1391,-418],[1393,-2957],[621,-333],[458,-1429],[-1208,-1097],[-1396,-582],[163,-1726],[953,-561],[-1201,-991],[-493,917]],[[31350,77879],[-583,1332],[-630,-1406],[-934,-5],[-542,-790],[-1561,-1126],[-31,2116],[-1619,1704],[-906,-94],[-977,495],[-3303,0],[-2500,0],[-1886,0]],[[34555,81441],[590,-1192],[113,-1495],[-1721,547],[1018,2140]],[[28119,93563],[3278,-1824],[1335,-1744],[-877,-1025],[-235,-1413],[-1349,565],[-1909,1382],[1457,1139],[-1288,1432],[-2127,113],[-1461,1308],[2191,873],[985,-806]],[[16239,94772],[1674,-562],[-2105,-1483],[-788,558],[1219,1487]],[[20410,93980],[156,-2245],[-2042,-371],[-1691,1742],[1170,1012],[2407,-138]],[[24559,99062],[3411,713],[4837,-443],[-5185,-3564],[-2481,170],[1221,1655],[-1803,1469]],[[13740,83450],[-984,1913],[-1608,815],[-2264,254],[-2696,-1388],[-2333,2265],[433,949],[-985,1454],[1722,2688],[5812,-358]],[[31350,77879],[-827,-837],[-146,-1273],[-928,-488],[-483,-1551],[-2,-1375],[-785,-974],[-816,-1805],[399,-2218],[-310,-968],[-705,2729],[-1520,219],[-1530,-482],[-744,-1210],[-45,-888]],[[22908,66758],[-414,306],[-538,1735],[-972,110],[-570,1258],[-1254,-242],[-1696,692]],[[17464,70617],[-900,1102],[-933,2596],[-224,2198],[176,1589],[-218,1533],[513,470]],[[74266,80229],[-610,-1276],[-1444,-1200],[82,-1480]],[[72294,76273],[-1680,547],[-903,-595]],[[69711,76225],[-1180,-633],[-504,1475],[-802,-129],[-975,1200],[-715,-340],[11,-2125]],[[65546,75673],[-963,273]],[[64583,75946],[-447,1296],[597,1626],[-1094,-261]],[[63639,78607],[-732,1149],[301,1188],[893,713],[1375,-617],[1181,771],[408,1179],[2120,795],[1477,-1059],[594,363],[975,-1909],[930,118],[1105,-1069]],[[69711,76225],[14,-1165]],[[69725,75060],[-467,278],[-417,-2065]],[[68841,73273],[-364,126]],[[68477,73399],[-1788,2341],[-404,764],[-739,-831]],[[89166,50368],[995,-727],[1444,-3764],[-519,152],[-880,1441],[-588,-978],[-443,120]],[[89175,46612],[-9,3756]],[[89175,46612],[-657,1036],[-206,1111],[-1649,1482],[108,1413],[446,-237],[122,-1146],[1085,615],[742,-518]],[[84713,46742],[33,-288]],[[84746,46454],[-33,288]],[[82744,54251],[-100,-2847],[-422,-1645],[-1605,417],[-315,1426],[159,1421]],[[80461,53023],[237,-711],[1140,379],[346,1658],[560,-98]],[[84146,52371],[-763,-367],[34,-1827],[-427,75],[352,1941],[804,178]],[[80134,48166],[1147,-302],[236,-809],[-1441,336],[58,775]],[[78991,51242],[483,-1140],[-81,-1608],[-898,941],[-1107,3483],[-894,1813],[584,159],[877,-1813],[283,-9],[753,-1826]],[[30935,21533],[465,-1303]],[[31400,20230],[-465,1303]],[[33993,34453],[-223,-2128]],[[33770,32325],[455,-1724],[-679,-1049],[-862,-62],[53,-1065],[-826,-223],[206,-1043],[-351,-2514],[-971,-2015],[157,-903]],[[30952,21727],[-929,167],[-392,940],[493,2776],[-166,1905],[286,3226],[362,1420],[-199,1630],[244,1675],[378,899],[-34,1372],[364,1027]],[[31359,38764],[231,521],[997,-240]],[[32587,39045],[511,-941],[852,-738],[359,-1375],[517,1042]],[[34826,37033],[271,-682],[-1104,-1898]],[[31400,20230],[-465,1303]],[[30669,41735],[231,-1609],[459,-1362]],[[30952,21727],[-1107,-710],[-664,731],[-194,3236],[265,509],[424,4979],[480,2712],[148,2754],[226,3600],[-78,1755]],[[30452,41293],[217,442]],[[58538,47060],[-557,-107],[-161,-2159],[-1178,776]],[[56642,45570],[-488,-91],[-119,2186],[-642,78],[-540,-526],[-318,1263],[-1113,-129]],[[53422,48351],[-39,179]],[[53383,48530],[226,581]],[[53609,49111],[441,-109],[817,2436],[258,2448]],[[55125,53886],[282,880],[816,-577],[557,622],[823,72]],[[57603,54883],[961,-994]],[[58564,53889],[-348,-2795]],[[58216,51094],[-154,-863]],[[58062,50231],[87,-958]],[[61551,50897],[-168,2575],[243,653]],[[61626,54125],[863,624],[785,1730]],[[63274,56479],[322,1964]],[[63596,58443],[583,-444],[-443,-2211],[-802,-2276],[-952,-1477],[-431,-1138]],[[59417,51319],[315,1646],[-287,1351]],[[59445,54316],[359,724]],[[59804,55040],[240,-610],[944,-591],[638,286]],[[61551,50897],[-662,-1725]],[[56824,56609],[-473,1679]],[[56351,58288],[-230,1045],[514,1530],[-14,2288]],[[56621,63151],[323,1394]],[[56944,64545],[1117,0],[2179,0]],[[60240,64545],[171,-1951],[258,-355]],[[60669,62239],[-433,-600],[-117,-1461]],[[60119,60178],[-604,-2185],[-78,-1121]],[[59437,56872],[-213,2014],[-515,-1366],[-1355,-148],[-530,-763]],[[56351,58288],[-1361,-1874],[-746,-270]],[[54244,56144],[-368,1226],[150,1908]],[[54026,59278],[-265,869],[474,1302],[182,2167],[-292,1427]],[[54125,65043],[280,315],[2216,-2207]],[[30080,63228],[1,-962]],[[30081,62266],[-274,231],[273,731]],[[30080,63228],[251,96],[691,-731],[-941,-327]],[[63639,78607],[-672,-1032],[528,-1614]],[[63495,75961],[-605,30]],[[62890,75991],[-1792,907]],[[61098,76898],[-671,705],[190,1409]],[[60617,79012],[513,1440],[-1309,562],[-992,879]],[[58829,81893],[-253,1988],[-750,356]],[[57826,84237],[-247,752]],[[57579,84989],[193,1153]],[[57772,86142],[25,593]],[[57797,86735],[852,1068],[-443,1494],[-264,2372]],[[57942,91669],[697,284]],[[58639,91953],[1503,-285],[1281,-1309],[-1753,-514],[36,-856],[2502,953],[2713,1607],[2718,398],[1788,2013],[2936,350],[5115,1613],[3376,152],[803,-1796],[3613,-17],[412,-913],[3170,-284],[166,785],[4594,-1048],[1093,-919],[4106,254],[1188,-527],[0,-2296],[-175,-1150],[-2409,-1526],[-1988,-269],[-395,-2889],[-1480,-2216],[-377,2519],[1302,2975],[-944,513],[-1516,-1529],[-2519,149],[-1964,-2484],[1327,-311],[401,-634],[-357,-2675],[-1442,-2910],[-1136,-679]],[[86327,76198],[-39,101]],[[86288,76299],[107,1483],[576,101],[535,1922],[-1122,-397],[-924,1136],[-476,1747],[-1373,264],[-73,-741],[-1128,-1197]],[[82410,80617],[-1671,-437],[-1048,660],[-893,-106],[-1337,1128],[-445,-1338],[-1396,620],[-1245,-867]],[[74375,80277],[-109,-48]],[[56314,83176],[-853,56]],[[55461,83232],[446,441]],[[55907,83673],[407,-497]],[[59287,78360],[438,-135]],[[59725,78225],[-438,135]],[[28280,66395],[84,-23],[97,-478],[-241,136],[60,365]],[[33000,21986],[333,346],[542,-375],[-736,-231],[-139,260]],[[57942,91669],[-2208,24]],[[55734,91693],[-1077,-630],[-1343,-2815],[-251,-2463]],[[53063,85785],[-1490,-154],[-187,1950],[1538,1449],[2404,3072],[2495,789],[816,-938]],[[37010,99485],[5462,514],[4136,-1284],[-2082,-1464],[92,-2568],[-1130,-1277],[304,-1124],[-1500,-956],[-3351,-1736],[-991,-3089],[-1357,438],[-936,1596],[-649,2053],[-10,2511],[-1272,2288],[-2755,314],[-1293,1366],[2919,1924],[4413,494]],[[69148,23844],[442,-253],[-68,-372],[-427,-37],[53,662]],[[84713,46742],[465,285],[90,-156],[-522,-417]],[[54540,35398],[986,67],[0,2128]],[[55526,37593],[475,-1129],[474,841],[654,-126],[1046,1957]],[[58175,39136],[489,-93]],[[58664,39043],[179,-2070]],[[58843,36973],[-220,65],[-100,-584],[385,6]],[[58908,36460],[211,-5]],[[59119,36455],[-102,-898],[-1179,-2577],[-677,-675],[-891,46],[-822,-550],[-908,3597]],[[58049,35180],[-550,-531],[209,-443],[305,331],[36,643]],[[22908,66758],[-95,-1957],[548,-2084],[409,-394],[1015,657],[137,989],[897,313],[-347,-1754]],[[25472,62528],[-234,-398]],[[25238,62130],[-516,5],[-341,-1890]],[[24381,60245],[-684,958],[-519,-315],[-1186,874],[-1157,1237],[-288,1992],[-906,2115],[-1437,403],[-740,3108]],[[33993,34453],[1066,-1055],[115,-992]],[[35174,32406],[-434,-682],[-970,601]],[[34826,37033],[-274,1777],[-646,326],[-64,1103]],[[33842,40239],[186,1154],[-206,1080],[-533,24],[-96,1431],[-1361,1273],[18,1040],[-1164,-686]],[[30686,45555],[-738,518],[-500,1458],[304,1296],[833,563]],[[30585,49390],[125,1580],[-104,1885],[817,-266]],[[31423,52589],[744,138],[-47,1328],[1009,809]],[[33129,54864],[332,-716],[141,-1522],[692,335]],[[34294,52961],[560,238]],[[34854,53199],[440,-108],[356,1171]],[[35650,54262],[844,-2531],[1985,-1542],[415,22],[1318,-1494],[30,-2035],[-1063,-2764],[-224,-3346],[-619,-1943],[-1245,-645],[-562,-1030],[-109,-1612],[-1246,-2936]],[[33842,40239],[-1005,313],[-250,-1507]],[[30669,41735],[257,2893],[-240,927]],[[30452,41293],[-1566,2131],[-1042,4297],[-414,609],[263,1575]],[[27693,49905],[685,231],[637,831],[48,812]],[[29063,51779],[639,-1243],[627,30],[256,-1176]],[[29063,51779],[-968,884]],[[28095,52663],[480,1422],[-209,1945]],[[28366,56030],[147,834]],[[28513,56864],[520,1123],[1152,666]],[[30185,58653],[-437,-764],[263,-1993],[714,-514],[435,-920],[263,-1873]],[[28366,56030],[-1412,577]],[[26954,56607],[116,773]],[[27070,57380],[826,26],[617,-542]],[[26954,56607],[-787,1101],[24,549]],[[26191,58257],[571,-86]],[[26762,58171],[308,-791]],[[26191,58257],[-446,1093]],[[25745,59350],[665,1041],[493,118]],[[26903,60509],[-141,-2338]],[[25745,59350],[-132,230]],[[25613,59580],[-434,599]],[[25179,60179],[314,752]],[[25493,60931],[1071,62],[339,-484]],[[25613,59580],[-640,202]],[[24973,59782],[206,397]],[[25238,62130],[59,-1107]],[[25297,61023],[196,-92]],[[24973,59782],[-592,463]],[[25472,62528],[-175,-1505]],[[30185,58653],[872,-704],[1518,-77],[825,-1183]],[[33400,56689],[-271,-1825]],[[33400,56689],[725,-1380]],[[34125,55309],[-249,-1102],[418,-1246]],[[34125,55309],[886,-125]],[[35011,55184],[-157,-1985]],[[35011,55184],[639,-922]],[[51718,80373],[356,-1063]],[[52074,79310],[-174,-939]],[[51900,78371],[165,-1324]],[[52065,77047],[-1236,-703]],[[50829,76344],[-1358,547]],[[49471,76891],[197,1494],[-492,896],[1522,2063]],[[50698,81344],[878,-933]],[[51576,80411],[142,-38]],[[27693,49905],[-175,1352],[577,1406]],[[31588,62537],[121,-311],[-372,-17],[24,331],[227,-3]],[[28453,62523],[334,-190],[-233,-265],[-101,455]],[[27147,65230],[1090,-389],[506,-753],[-342,-779],[-268,1005],[-861,342],[-125,574]],[[58175,39136],[-392,348],[-766,2161]],[[57017,41645],[495,-116],[897,1401]],[[58409,42930],[715,-695],[-21,-1730],[-439,-1462]],[[55526,37593],[274,1702],[8,2053],[1159,340]],[[56967,41688],[50,-43]],[[54540,35398],[-315,856],[-265,2870],[-701,2772]],[[53259,41896],[1814,-5],[1375,-123]],[[56448,41768],[519,-80]],[[45357,59702],[69,1463]],[[45426,61165],[524,267],[669,-1142]],[[46619,60290],[182,-1252]],[[46801,59038],[-607,82]],[[46194,59120],[-827,-116]],[[45367,59004],[-46,442]],[[45321,59446],[253,-12],[85,284],[-302,-16]],[[46619,60290],[140,445],[1702,65],[-254,5449],[425,11]],[[48632,66260],[937,-1258],[1616,-2096]],[[51185,62906],[-175,-2067],[-906,-369]],[[50104,60470],[-660,-213],[-895,-1640],[-51,-774]],[[48498,57843],[-729,-94]],[[47769,57749],[-305,1211],[-663,78]],[[47587,67655],[1045,-1395]],[[45426,61165],[52,2281],[-218,523]],[[50747,55474],[-229,-67]],[[50518,55407],[-269,2798]],[[50249,58205],[349,543]],[[50598,58748],[405,-161]],[[51003,58587],[-256,-3113]],[[54026,59278],[-87,-217]],[[53939,59061],[-1130,457],[-305,-259],[-1291,530],[-210,-1202]],[[50598,58748],[-494,1722]],[[51185,62906],[392,257],[1756,2230]],[[53333,65393],[792,-350]],[[53939,59061],[-677,-3171],[-698,-309],[-203,-964]],[[52361,54617],[-723,-294],[-437,1158],[-454,-7]],[[54244,56144],[-223,-1550],[426,-1420]],[[54447,53174],[-815,-1]],[[53632,53173],[-500,-3]],[[53132,53170],[-452,13]],[[52680,53183],[-319,1434]],[[50518,55407],[-224,-123]],[[50294,55284],[-288,2933]],[[50006,58217],[243,-12]],[[50294,55284],[-1088,-539]],[[49206,54745],[8,2679]],[[49214,57424],[792,793]],[[48498,57843],[716,-419]],[[49206,54745],[-1349,-363]],[[47857,54382],[-202,1914]],[[47655,56296],[114,1453]],[[47655,56296],[-497,415]],[[47158,56711],[-247,945],[-591,-658]],[[46320,56998],[-523,1231]],[[45797,58229],[397,891]],[[45797,58229],[-430,775]],[[47857,54382],[-1035,1396]],[[46822,55778],[336,933]],[[46822,55778],[-502,1220]],[[55125,53886],[-678,-712]],[[56824,56609],[779,-1726]],[[53609,49111],[-300,-148]],[[53309,48963],[-228,611]],[[53081,49574],[926,1524],[-375,2075]],[[53081,49574],[-638,1652],[193,1223]],[[52636,52449],[496,721]],[[52636,52449],[44,734]],[[59099,46547],[202,-746],[-75,-1986]],[[59226,43815],[-817,-885]],[[56448,41768],[-369,832],[13,1833],[579,-7],[-29,1144]],[[59599,45228],[-373,-1413]],[[61198,45921],[128,-2521],[-368,-1169],[-1296,-1766],[187,-2500],[-730,-1510]],[[58908,36460],[-65,513]],[[53259,41896],[279,2399],[249,634],[-111,2003],[-254,1419]],[[53383,48530],[-74,433]],[[58062,50231],[401,245]],[[59922,70717],[-49,-182]],[[59873,70535],[-100,80],[-72,-679],[131,78]],[[59832,70014],[-132,-1146]],[[59700,68868],[-27,150]],[[59673,69018],[-155,840]],[[59518,69858],[239,1079]],[[59757,70937],[193,108]],[[59950,71045],[-28,-328]],[[59757,70937],[242,896]],[[59999,71833],[-49,-788]],[[63761,44680],[260,-1588],[-272,-1083],[-667,-4516],[-849,-27],[-219,1689],[312,1144],[-115,1534],[653,940],[897,1907]],[[59873,70535],[-41,-521]],[[45321,59446],[36,256]],[[52633,69333],[-519,1750],[225,2076]],[[52339,73159],[699,-719],[153,-1476]],[[53191,70964],[-558,-1631]],[[47592,67805],[-2,683],[953,668],[1093,1304],[-239,1674]],[[49397,72134],[1010,829],[1932,196]],[[52633,69333],[229,-3416],[471,-524]],[[59922,70717],[853,386]],[[60775,71103],[112,-702]],[[60887,70401],[-332,-952],[-846,-664]],[[59709,68785],[-9,83]],[[64327,65839],[675,-71],[573,1115]],[[65575,66883],[52,-197]],[[65627,66686],[38,-455]],[[65665,66231],[-330,-1277]],[[65335,64954],[-891,168],[-117,717]],[[64113,66133],[57,722],[160,-119],[-56,-676]],[[64274,66060],[-161,73]],[[63326,69142],[122,-821]],[[63448,68321],[-513,316]],[[62935,68637],[391,505]],[[60775,71103],[615,600],[373,1619]],[[61763,73322],[673,-34]],[[62436,73288],[179,-1846],[533,-863],[342,-1465]],[[63490,69114],[-164,28]],[[62935,68637],[-516,46],[-1532,1718]],[[65575,66883],[52,-197]],[[65665,66231],[947,-1507],[-560,-1869],[-699,-1060],[-601,-332]],[[64752,61463],[-308,1353]],[[64444,62816],[833,577],[58,1561]],[[96330,42837],[-45,601],[133,-178],[45,-464],[-133,41]],[[78495,58890],[112,1175],[620,27]],[[79227,60092],[601,-40]],[[79828,60052],[30,-1075],[-877,-1067]],[[78981,57910],[-486,980]],[[78495,58890],[-446,707],[-507,-1989],[363,-1460],[467,-696]],[[78372,55452],[-571,140]],[[77801,55592],[-440,1106],[14,893]],[[77375,57591],[287,1130],[-480,3270],[110,1234],[517,409]],[[77809,63634],[555,-1331],[512,76],[453,-1539],[-102,-748]],[[77809,63634],[296,587]],[[78105,64221],[275,592]],[[78380,64813],[629,-983],[183,-1205],[686,-1997],[-50,-576]],[[77375,57591],[59,869],[-445,3163],[-826,-514],[38,1254],[-544,1416]],[[75657,63779],[85,790]],[[75742,64569],[681,2612],[612,973]],[[77035,68154],[376,-434],[155,-3106],[539,-393]],[[78380,64813],[877,512],[756,-1038]],[[80013,64287],[-663,-1437],[893,-2179],[90,-2081],[-1123,-1767],[-229,1087]],[[86327,76198],[-902,-1419],[227,-660]],[[85652,74119],[-604,-497]],[[85048,73622],[-531,1256]],[[84517,74878],[724,1088],[1047,333]],[[85652,74119],[206,-2034],[-724,-399],[-86,1936]],[[82410,80617],[-332,-1010],[538,-843],[-2271,-2393],[-1189,-532],[-870,529],[-1523,121],[-290,874],[-1211,602],[7,923],[-894,1389]],[[75742,64569],[-211,1204],[-554,657],[-510,-443],[263,-1410]],[[74730,64577],[-703,-1097],[-1715,-2451],[-130,-3193],[-644,-1379],[-263,538],[-850,4087],[-251,3092],[-600,-276],[-637,1622]],[[68937,65520],[797,383],[-243,1231],[1181,2586],[-50,2173],[999,429]],[[71621,72322],[298,-676],[-48,-1617],[659,-768]],[[72530,69261],[-284,-800],[1434,-1192],[797,663]],[[74477,67932],[193,-333]],[[74670,67599],[801,273]],[[75471,67872],[797,867],[767,-585]],[[75657,63779],[-264,1207],[-663,-409]],[[74670,67599],[334,575],[467,-302]],[[72530,69261],[1309,-1141],[638,-188]],[[68937,65520],[-501,999],[-1354,-200]],[[67082,66319],[505,968],[-678,1770]],[[66909,69057],[465,-294],[1055,328],[717,998],[543,1366],[268,1452],[920,359]],[[70877,73266],[744,-944]],[[68841,73273],[1031,439],[955,-280]],[[70827,73432],[50,-166]],[[66909,69057],[-96,2217],[189,1138]],[[67002,72412],[284,-219],[1191,1206]],[[69725,75060],[740,-469]],[[70465,74591],[362,-1159]],[[72294,76273],[-1829,-1682]],[[67002,72412],[-549,1016],[-1034,317],[-441,-441]],[[64978,73304],[-395,2642]],[[62436,73288],[6,1465]],[[62442,74753],[375,-560]],[[62817,74193],[101,17]],[[62918,74210],[660,-259]],[[63578,73951],[939,-934],[461,287]],[[67082,66319],[-1139,382],[-1632,1225],[-391,1315],[-430,-127]],[[59999,71833],[42,678]],[[60041,72511],[255,462],[1467,349]],[[62817,74193],[-375,560]],[[62442,74753],[-336,795]],[[62106,75548],[386,90]],[[62492,75638],[426,-1428]],[[55734,91693],[905,-1787]],[[56639,89906],[-1682,-1877],[261,-1537],[-807,-2292],[-816,-428],[-532,2013]],[[58829,81893],[-703,-423],[-1591,121]],[[56535,81591],[-12,1345]],[[56523,82936],[836,982]],[[57359,83918],[467,319]],[[60617,79012],[-892,-787]],[[59287,78360],[-1064,-391]],[[58223,77969],[-381,113]],[[57842,78082],[247,1360],[-695,214]],[[57394,79656],[-1086,-195]],[[56308,79461],[-174,311]],[[56134,79772],[132,383]],[[56266,80155],[269,1436]],[[56266,80155],[-1030,236]],[[55236,80391],[-1065,928]],[[54171,81319],[-249,1528]],[[53922,82847],[1539,385]],[[56314,83176],[209,-240]],[[54716,79600],[-216,-732]],[[54500,78868],[-665,-198]],[[53835,78670],[-935,221]],[[52900,78891],[-235,364]],[[52665,79255],[1111,780]],[[53776,80035],[935,-162]],[[54711,79873],[5,-273]],[[56308,79461],[-692,-1011]],[[55616,78450],[-386,-126]],[[55230,78324],[-629,343]],[[54601,78667],[-101,201]],[[54716,79600],[1418,172]],[[57842,78082],[-448,1574]],[[58223,77969],[-291,-914]],[[57932,77055],[-1639,304]],[[56293,77359],[-677,1091]],[[55907,83673],[-59,484]],[[55848,84157],[1511,-239]],[[55848,84157],[905,1016]],[[56753,85173],[826,-184]],[[56753,85173],[1019,969]],[[54171,81319],[-395,-1284]],[[52665,79255],[-591,55]],[[51718,80373],[-40,382]],[[51678,80755],[32,390]],[[51710,81145],[208,1543]],[[51918,82688],[450,854]],[[52368,83542],[388,11]],[[52756,83553],[1166,-706]],[[57932,77055],[-156,-979]],[[57776,76076],[-522,-104]],[[57254,75972],[-879,-282]],[[56375,75690],[-159,566]],[[56216,76256],[77,1103]],[[57254,75972],[-17,-578]],[[57237,75394],[-890,-672],[330,-1155],[-658,-467],[-422,1603]],[[55597,74703],[241,701]],[[55838,75404],[537,286]],[[60041,72511],[-2363,482],[-409,1617],[853,1012],[1646,472],[884,-629],[890,339]],[[61542,75804],[564,-256]],[[57776,76076],[-539,-682]],[[55597,74703],[-217,1298]],[[55380,76001],[195,410]],[[55575,76411],[144,-423]],[[55719,75988],[119,-584]],[[55230,78324],[49,-604]],[[55279,77720],[-124,-1274]],[[55155,76446],[-31,-98]],[[55124,76348],[-676,592],[-639,1149]],[[53809,78089],[792,578]],[[52900,78891],[-1000,-520]],[[51576,80411],[102,344]],[[50698,81344],[222,113]],[[50920,81457],[790,-312]],[[50920,81457],[998,1231]],[[47490,76002],[657,2],[-218,-2758]],[[47929,73246],[-576,945],[137,1811]],[[47490,76002],[293,1077],[1688,-188]],[[50829,76344],[-604,-840],[-415,-1944],[-1304,-977],[-577,663]],[[48278,82911],[-657,-1267],[-313,1275],[588,720]],[[47896,83639],[382,-728]],[[96049,39718],[-85,-345],[-363,712],[81,187],[367,-554]],[[94344,47245],[77,-299],[-370,452],[-63,250],[356,-403]],[[99134,28777],[-851,321],[243,1226],[1061,-181],[-453,-1366]],[[97129,26766],[675,1498],[597,-469],[-1365,-2807],[-635,881],[728,897]],[[85040,33301],[-691,-965],[-1046,-50],[-519,-627],[-833,500],[215,1148],[-452,2355],[-217,2152],[349,1472],[573,650],[1151,587],[405,1400],[937,1743],[1034,-110],[336,1086],[815,432],[944,-326],[-423,-1362],[1065,-1530],[448,1],[230,1339],[1020,35],[281,-2290],[684,-826],[230,-1124],[883,-1686],[198,-1638],[-188,-2035],[-782,-2754],[-1044,-1507],[-1578,585],[-699,1388],[-1069,1726],[-818,646],[-1439,-415]],[[72718,56202],[-400,-896],[-181,1287],[581,-391]],[[84517,74878],[-1870,-687],[603,-911],[-153,-1295],[766,-1854],[51,-1072],[-955,-3046],[-768,-1016],[-1124,-711],[-1054,1]],[[83826,65925],[-286,-1397],[-178,914],[464,483]],[[53835,78670],[36,-529]],[[53871,78141],[-447,-121],[72,-743],[917,-1470],[-1051,94],[-893,1534],[-404,-388]],[[52368,83542],[-121,909],[600,201],[-91,-1099]],[[47896,83639],[382,-728]],[[49140,82644],[-692,1098],[160,1913],[847,-545],[-35,-1022],[710,-1718],[22,-1247],[-1157,-310],[-459,1016],[604,815]],[[45969,90165],[250,-766],[-1402,-939],[-533,1288],[1685,417]],[[63495,75961],[83,-2010]],[[62492,75638],[398,353]],[[61542,75804],[-444,1094]],[[85104,56716],[-599,-1298],[-204,1459],[803,-161]],[[83982,62370],[-188,-1322],[-442,-554],[179,2037],[451,-161]],[[80461,53023],[926,632],[336,820]],[[81723,54475],[317,-121],[29,652]],[[82069,55006],[354,852],[682,-875],[-361,-732]],[[78372,55452],[344,-787],[39,-2091],[-592,884],[-362,2134]],[[81723,54475],[346,531]],[[53809,78089],[62,52]],[[57797,86735],[-1445,-379],[-503,1591],[1205,1443],[-415,516]],[[54711,79873],[525,518]],[[60669,62239],[238,-1196],[1059,-1857]],[[61966,59186],[-202,-91]],[[61764,59095],[-904,1267],[-741,-184]],[[89411,74447],[-308,-1924],[-500,-677],[-1894,-440],[128,881],[850,54],[1724,2106]],[[64752,61463],[-1231,-1526],[-1443,-788],[-195,2139]],[[61883,61288],[167,710],[1005,-363],[588,961],[801,220]],[[63448,68321],[665,-2188]],[[64274,66060],[53,-221]],[[61883,61288],[-1012,2849],[-179,1381],[-934,2522],[-49,745]],[[99999,3047],[0,-3047],[-99999,0],[0,3047],[8741,-516],[-1203,2055],[1567,790],[-1142,1886],[1947,1073],[2530,711],[5278,34],[4325,-610],[1197,972],[2198,350],[3389,-554],[2024,554],[125,1671],[1937,-565],[-125,-1931],[-4434,-2270],[712,-1084],[3363,-858],[9640,813],[-2007,1152],[1915,960],[3661,1253],[71,780],[2230,835],[4706,971],[2704,68],[2176,-327],[1573,621],[2018,158],[3498,1762],[4521,-1085],[-299,-1366],[2731,486],[1426,1298],[1305,192],[3401,-214],[3857,790],[2018,-756],[4168,666],[441,-531],[2230,23],[2443,-949],[4700,-1807],[-1420,-1547],[-1751,-3783],[5614,-2171]],[[59092,72118],[259,134],[86,-181]],[[59437,72071],[-345,47]],[[59437,72071],[-277,-281],[-68,328]],[[45272,64212],[716,2785],[1355,2120],[252,1906],[757,1452],[1045,-341]],[[56944,64545],[46,5515]],[[56990,70060],[1041,-403],[573,395],[914,-194]],[[59673,69018],[-410,-1188],[977,-3285]],[[53191,70964],[1043,-503],[1067,-1152],[491,1407],[1198,-656]],[[59804,55040],[-367,1832]],[[61764,59095],[118,-931]],[[61882,58164],[250,-1005],[1142,-680]],[[61966,59186],[18,-714]],[[61984,58472],[-102,-308]],[[61984,58472],[270,-585],[1342,556]],[[58449,51213],[-233,-119]],[[58564,53889],[881,427]],[[55279,77720],[59,-771]],[[55338,76949],[-183,-503]],[[55719,75988],[274,225]],[[55993,76213],[223,43]],[[55993,76213],[-366,327]],[[55627,76540],[-289,409]],[[55380,76001],[-256,347]],[[55627,76540],[-52,-129]],[[32866,58068],[218,55],[-11,-430],[-232,-63],[25,438]]],"transform":{"scale":[0.0036000360003600037,0.001735213952139521],"translate":[-180,-90]},"objects":{"input":{"type":"GeometryCollection","geometries":[{"arcs":[[0]],"type":"Polygon","properties":{"name":"Fidji","id":"FJI"}},{"arcs":[[1,2,3,4,5,6,7,8,9]],"type":"Polygon","properties":{"name":"Tanzanie","id":"TZA"}},{"arcs":[[10,11,12,13]],"type":"Polygon","properties":{"name":"Sahara occidental","id":"SAH"}},{"arcs":[[[14,15,16,17]],[[18]],[[19]],[[20]],[[21]],[[22]]],"type":"MultiPolygon","properties":{"name":"Canada","id":"CAN"}},{"arcs":[[[-16,23]],[[-18,24,25,26]]],"type":"MultiPolygon","properties":{"name":"États-Unis","id":"USA"}},{"arcs":[[27,28,29,30,31,32]],"type":"Polygon","properties":{"name":"Kazakhstan","id":"KAZ"}},{"arcs":[[-30,33,34,35,36]],"type":"Polygon","properties":{"name":"Ouzbékistan","id":"UZB"}},{"arcs":[[37,38]],"type":"Polygon","properties":{"name":"Papouasie-Nouvelle-Guinée","id":"PNG"}},{"arcs":[[[-39,39]],[[42,43]],[[44]],[[45]],[[46]]],"type":"MultiPolygon","properties":{"name":"Indonésie","id":"IDN"}},{"arcs":[[49,50,51,52,53,54]],"type":"Polygon","properties":{"name":"Argentine","id":"ARG"}},{"arcs":[[56,-52,57,58]],"type":"Polygon","properties":{"name":"Chili","id":"CHL"}},{"arcs":[[-7,59,60,61,62,63,64,65,66,67,68]],"type":"Polygon","properties":{"name":"République démocratique du Congo","id":"COD"}},{"arcs":[[69,70,71,72]],"type":"Polygon","properties":{"name":"Somalie","id":"SOM"}},{"arcs":[[-2,73,74,75,-70,76]],"type":"Polygon","properties":{"name":"Kenya","id":"KEN"}},{"arcs":[[77,78,79,80,81,82,83,84]],"type":"Polygon","properties":{"name":"Soudan","id":"SDN"}},{"arcs":[[-79,85,86,87,88]],"type":"Polygon","properties":{"name":"Tchad","id":"TCD"}},{"arcs":[[89,90]],"type":"Polygon","properties":{"name":"Haïti","id":"HTI"}},{"arcs":[[-90,91]],"type":"Polygon","properties":{"name":"République dominicaine","id":"DOM"}},{"arcs":[[[92,93,94,95,96,97,98,99,100,101,102,103,104,105,106,107,-33]],[[108,109,110]]],"type":"MultiPolygon","properties":{"name":"Russie","id":"RUS"}},{"arcs":[[113]],"type":"Polygon","properties":{"name":"Bahamas","id":"BHS"}},{"arcs":[[114]],"type":"Polygon","properties":{"name":"îles Malouines","id":"FLK"}},{"arcs":[[-103,115,116,117]],"type":"Polygon","properties":{"name":"Norvège","id":"NOR"}},{"arcs":[[118]],"type":"Polygon","properties":{"name":"Groenland","id":"GRL"}},{"arcs":[[119]],"type":"Polygon","properties":{"name":"Terres australes et antarctiques françaises","id":"ATF"}},{"arcs":[[120,-41]],"type":"Polygon","properties":{"name":"Timor oriental","id":"TLS"}},{"arcs":[[121,122,123,124,125,126,127],[128]],"type":"Polygon","properties":{"name":"Afrique du Sud","id":"ZAF"}},{"arcs":[[-129]],"type":"Polygon","properties":{"name":"Lesotho","id":"LSO"}},{"arcs":[[-26,129,130,131,132]],"type":"Polygon","properties":{"name":"Mexique","id":"MEX"}},{"arcs":[[133,134,-50]],"type":"Polygon","properties":{"name":"Uruguay","id":"URY"}},{"arcs":[[-134,-55,135,136,137,138,139,140,141,142,143]],"type":"Polygon","properties":{"name":"Brésil","id":"BRA"}},{"arcs":[[-137,144,-53,-57,145]],"type":"Polygon","properties":{"name":"Bolivie","id":"BOL"}},{"arcs":[[-138,-146,-59,146,147,148]],"type":"Polygon","properties":{"name":"Pérou","id":"PER"}},{"arcs":[[-139,-149,149,150,151,152,153]],"type":"Polygon","properties":{"name":"Colombie","id":"COL"}},{"arcs":[[-152,154,155,156]],"type":"Polygon","properties":{"name":"Panama","id":"PAN"}},{"arcs":[[-156,157,158,159]],"type":"Polygon","properties":{"name":"Costa Rica","id":"CRI"}},{"arcs":[[-159,160,161,162]],"type":"Polygon","properties":{"name":"Nicaragua","id":"NIC"}},{"arcs":[[-162,163,164,165,166]],"type":"Polygon","properties":{"name":"Honduras","id":"HND"}},{"arcs":[[-165,167,168]],"type":"Polygon","properties":{"name":"Salvador","id":"SLV"}},{"arcs":[[-132,169,170,-166,-169,171]],"type":"Polygon","properties":{"name":"Guatemala","id":"GTM"}},{"arcs":[[-131,172,-170]],"type":"Polygon","properties":{"name":"Belize","id":"BLZ"}},{"arcs":[[-140,-154,173,174]],"type":"Polygon","properties":{"name":"Venezuela","id":"VEN"}},{"arcs":[[-141,-175,175,176]],"type":"Polygon","properties":{"name":"Guyana","id":"GUY"}},{"arcs":[[-142,-177,177,178]],"type":"Polygon","properties":{"name":"Suriname","id":"SUR"}},{"arcs":[[[-143,-179,179]],[[180,181,182,183,184,185,186,187]]],"type":"MultiPolygon","properties":{"name":"France","id":"FRA"}},{"arcs":[[-148,188,-150]],"type":"Polygon","properties":{"name":"Équateur","id":"ECU"}},{"arcs":[[189]],"type":"Polygon","properties":{"name":"Porto Rico","id":"PRI"}},{"arcs":[[190]],"type":"Polygon","properties":{"name":"Jamaïque","id":"JAM"}},{"arcs":[[191]],"type":"Polygon","properties":{"name":"Cuba","id":"CUB"}},{"arcs":[[-124,192,193,194]],"type":"Polygon","properties":{"name":"Zimbabwe","id":"ZWE"}},{"arcs":[[-123,195,196,-193]],"type":"Polygon","properties":{"name":"Botswana","id":"BWA"}},{"arcs":[[-122,197,198,199,-196]],"type":"Polygon","properties":{"name":"Namibie","id":"NAM"}},{"arcs":[[200,201,202,203,204,205,206]],"type":"Polygon","properties":{"name":"Sénégal","id":"SEN"}},{"arcs":[[-203,207,208,209,210,211,212]],"type":"Polygon","properties":{"name":"Mali","id":"MLI"}},{"arcs":[[-12,213,-208,-202,214]],"type":"Polygon","properties":{"name":"Mauritanie","id":"MRT"}},{"arcs":[[215,216,217,218,219]],"type":"Polygon","properties":{"name":"Bénin","id":"BEN"}},{"arcs":[[-88,220,221,-219,222,-210,223,224]],"type":"Polygon","properties":{"name":"Niger","id":"NER"}},{"arcs":[[-220,-222,225,226]],"type":"Polygon","properties":{"name":"Nigeria","id":"NGA"}},{"arcs":[[-87,227,228,229,230,231,-226,-221]],"type":"Polygon","properties":{"name":"Cameroun","id":"CMR"}},{"arcs":[[-217,232,233,234]],"type":"Polygon","properties":{"name":"Togo","id":"TGO"}},{"arcs":[[-234,235,236,237]],"type":"Polygon","properties":{"name":"Ghana","id":"GHA"}},{"arcs":[[-212,238,-237,239,240,241]],"type":"Polygon","properties":{"name":"Côte d'Ivoire","id":"CIV"}},{"arcs":[[-204,-213,-242,242,243,244,245]],"type":"Polygon","properties":{"name":"Guinée","id":"GIN"}},{"arcs":[[-205,-246,246]],"type":"Polygon","properties":{"name":"Guinée-Bissau","id":"GNB"}},{"arcs":[[-241,247,248,-243]],"type":"Polygon","properties":{"name":"Liberia","id":"LBR"}},{"arcs":[[-244,-249,249]],"type":"Polygon","properties":{"name":"Sierra Leone","id":"SLE"}},{"arcs":[[-211,-223,-218,-235,-238,-239]],"type":"Polygon","properties":{"name":"Burkina Faso","id":"BFA"}},{"arcs":[[-65,250,-228,-86,-78,251]],"type":"Polygon","properties":{"name":"République centrafricaine","id":"CAF"}},{"arcs":[[-64,252,253,254,-229,-251]],"type":"Polygon","properties":{"name":"République du Congo","id":"COG"}},{"arcs":[[-230,-255,255,256]],"type":"Polygon","properties":{"name":"Gabon","id":"GAB"}},{"arcs":[[-231,-257,257]],"type":"Polygon","properties":{"name":"Guinée équatoriale","id":"GNQ"}},{"arcs":[[-6,258,259,-194,-197,-200,260,-60]],"type":"Polygon","properties":{"name":"Zambie","id":"ZMB"}},{"arcs":[[-5,261,-259]],"type":"Polygon","properties":{"name":"Malawi","id":"MWI"}},{"arcs":[[-4,262,-127,263,-125,-195,-260,-262]],"type":"Polygon","properties":{"name":"Mozambique","id":"MOZ"}},{"arcs":[[-126,-264]],"type":"Polygon","properties":{"name":"Eswatini","id":"SWZ"}},{"arcs":[[[-61,-261,-199,264]],[[-63,265,-253]]],"type":"MultiPolygon","properties":{"name":"Angola","id":"AGO"}},{"arcs":[[-8,-69,266]],"type":"Polygon","properties":{"name":"Burundi","id":"BDI"}},{"arcs":[[267,268,269,270,271,272,273,274]],"type":"Polygon","properties":{"name":"Israël","id":"ISR"}},{"arcs":[[-274,275,276]],"type":"Polygon","properties":{"name":"Liban","id":"LBN"}},{"arcs":[[277]],"type":"Polygon","properties":{"name":"Madagascar","id":"MDG"}},{"arcs":[[-269,278]],"type":"Polygon","properties":{"name":"Palestine","id":"PSX"}},{"arcs":[[-207,279]],"type":"Polygon","properties":{"name":"Gambie","id":"GMB"}},{"arcs":[[280,281,282]],"type":"Polygon","properties":{"name":"Tunisie","id":"TUN"}},{"arcs":[[-11,283,284,-281,285,-224,-209,-214]],"type":"Polygon","properties":{"name":"Algérie","id":"DZA"}},{"arcs":[[-268,286,287,288,289,-270,-279]],"type":"Polygon","properties":{"name":"Jordanie","id":"JOR"}},{"arcs":[[290,291,292,293,294]],"type":"Polygon","properties":{"name":"Émirats arabes unis","id":"ARE"}},{"arcs":[[295,296]],"type":"Polygon","properties":{"name":"Qatar","id":"QAT"}},{"arcs":[[297,298,299]],"type":"Polygon","properties":{"name":"Koweït","id":"KWT"}},{"arcs":[[-288,300,301,302,303,-300,304]],"type":"Polygon","properties":{"name":"Irak","id":"IRQ"}},{"arcs":[[-294,306,307,308]],"type":"Polygon","properties":{"name":"Oman","id":"OMN"}},{"arcs":[[309]],"type":"Polygon","properties":{"name":"Vanuatu","id":"VUT"}},{"arcs":[[310,311,312,313]],"type":"Polygon","properties":{"name":"Cambodge","id":"KHM"}},{"arcs":[[-311,314,315,316,317,318]],"type":"Polygon","properties":{"name":"Thaïlande","id":"THA"}},{"arcs":[[-312,-319,319,320,321]],"type":"Polygon","properties":{"name":"Laos","id":"LAO"}},{"arcs":[[-318,322,323,324,325,-320]],"type":"Polygon","properties":{"name":"Birmanie","id":"MMR"}},{"arcs":[[-313,-322,326,327]],"type":"Polygon","properties":{"name":"Viêt Nam","id":"VNM"}},{"arcs":[[-105,328,329,330,331]],"type":"Polygon","properties":{"name":"Corée du Nord","id":"PRK"}},{"arcs":[[-330,332]],"type":"Polygon","properties":{"name":"Corée du Sud","id":"KOR"}},{"arcs":[[-107,333]],"type":"Polygon","properties":{"name":"Mongolie","id":"MNG"}},{"arcs":[[-325,334,335,336,337,338,339,340,341]],"type":"Polygon","properties":{"name":"Inde","id":"IND"}},{"arcs":[[-324,342,-335]],"type":"Polygon","properties":{"name":"Bangladesh","id":"BGD"}},{"arcs":[[-341,343]],"type":"Polygon","properties":{"name":"Bhoutan","id":"BTN"}},{"arcs":[[-339,344]],"type":"Polygon","properties":{"name":"Népal","id":"NPL"}},{"arcs":[[-337,345,346,347,348]],"type":"Polygon","properties":{"name":"Pakistan","id":"PAK"}},{"arcs":[[-36,349,350,-348,351,352]],"type":"Polygon","properties":{"name":"Afghanistan","id":"AFG"}},{"arcs":[[-35,353,354,-350]],"type":"Polygon","properties":{"name":"Tadjikistan","id":"TJK"}},{"arcs":[[-29,355,-354,-34]],"type":"Polygon","properties":{"name":"Kirghizistan","id":"KGZ"}},{"arcs":[[-31,-37,-353,356,357]],"type":"Polygon","properties":{"name":"Turkménistan","id":"TKM"}},{"arcs":[[-303,358,359,360,361,362,-357,-352,-347,363]],"type":"Polygon","properties":{"name":"Iran","id":"IRN"}},{"arcs":[[-275,-277,364,365,-301,-287]],"type":"Polygon","properties":{"name":"Syrie","id":"SYR"}},{"arcs":[[-361,366,367,368,369]],"type":"Polygon","properties":{"name":"Arménie","id":"ARM"}},{"arcs":[[-117,370,371]],"type":"Polygon","properties":{"name":"Suède","id":"SWE"}},{"arcs":[[-98,372,373,374,375]],"type":"Polygon","properties":{"name":"Biélorussie","id":"BLR"}},{"arcs":[[-97,376,-112,377,378,379,380,381,382,383,-373]],"type":"Polygon","properties":{"name":"Ukraine","id":"UKR"}},{"arcs":[[-374,-384,384,385,386,387,-109,388]],"type":"Polygon","properties":{"name":"Pologne","id":"POL"}},{"arcs":[[389,390,391,392,393,394,395]],"type":"Polygon","properties":{"name":"Autriche","id":"AUT"}},{"arcs":[[-382,396,397,398,399,-390,400]],"type":"Polygon","properties":{"name":"Hongrie","id":"HUN"}},{"arcs":[[-380,401]],"type":"Polygon","properties":{"name":"Moldavie","id":"MDA"}},{"arcs":[[-379,402,403,404,-397,-381,-402]],"type":"Polygon","properties":{"name":"Roumanie","id":"ROU"}},{"arcs":[[-375,-389,-111,405,406]],"type":"Polygon","properties":{"name":"Lituanie","id":"LTU"}},{"arcs":[[-99,-376,-407,407,408]],"type":"Polygon","properties":{"name":"Lettonie","id":"LVA"}},{"arcs":[[-100,-409,409]],"type":"Polygon","properties":{"name":"Estonie","id":"EST"}},{"arcs":[[-387,410,-394,411,-181,412,413,414,415,416,417]],"type":"Polygon","properties":{"name":"Allemagne","id":"DEU"}},{"arcs":[[-404,418,419,420,421,422]],"type":"Polygon","properties":{"name":"Bulgarie","id":"BGR"}},{"arcs":[[-421,423,424,425,426]],"type":"Polygon","properties":{"name":"Grèce","id":"GRC"}},{"arcs":[[[-302,-366,427,428,-368,-359]],[[-420,429,-424]]],"type":"MultiPolygon","properties":{"name":"Turquie","id":"TUR"}},{"arcs":[[-426,430,431,432,433]],"type":"Polygon","properties":{"name":"Albanie","id":"ALB"}},{"arcs":[[-399,434,435,436,437,438]],"type":"Polygon","properties":{"name":"Croatie","id":"HRV"}},{"arcs":[[-393,439,-182,-412]],"type":"Polygon","properties":{"name":"Suisse","id":"CHE"}},{"arcs":[[-413,-188,440]],"type":"Polygon","properties":{"name":"Luxembourg","id":"LUX"}},{"arcs":[[-414,-441,-187,441,442]],"type":"Polygon","properties":{"name":"Belgique","id":"BEL"}},{"arcs":[[-415,-443,443]],"type":"Polygon","properties":{"name":"Pays-Bas","id":"NLD"}},{"arcs":[[444,445]],"type":"Polygon","properties":{"name":"Portugal","id":"PRT"}},{"arcs":[[-445,446,-185,447]],"type":"Polygon","properties":{"name":"Espagne","id":"ESP"}},{"arcs":[[448,449]],"type":"Polygon","properties":{"name":"Irlande","id":"IRL"}},{"arcs":[[450]],"type":"Polygon","properties":{"name":"Nouvelle-Calédonie","id":"NCL"}},{"arcs":[[451]],"type":"Polygon","properties":{"name":"Îles Salomon","id":"SLB"}},{"arcs":[[[452]],[[453]]],"type":"MultiPolygon","properties":{"name":"Nouvelle-Zélande","id":"NZL"}},{"arcs":[[454]],"type":"Polygon","properties":{"name":"Australie","id":"AUS"}},{"arcs":[[455]],"type":"Polygon","properties":{"name":"Sri Lanka","id":"LKA"}},{"arcs":[[-28,-108,-334,-106,-332,456,-327,-321,-326,-342,-344,-340,-345,-338,-349,-351,-355,-356]],"type":"Polygon","properties":{"name":"République populaire de Chine","id":"CHN"}},{"arcs":[[457]],"type":"Polygon","properties":{"name":"Taïwan","id":"TWN"}},{"arcs":[[-392,458,459,-183,-440]],"type":"Polygon","properties":{"name":"Italie","id":"ITA"}},{"arcs":[[-417,460]],"type":"Polygon","properties":{"name":"Danemark","id":"DNK"}},{"arcs":[[462]],"type":"Polygon","properties":{"name":"Royaume-Uni","id":"GBR"}},{"arcs":[[463]],"type":"Polygon","properties":{"name":"Islande","id":"ISL"}},{"arcs":[[-94,464,-362,-370,465]],"type":"Polygon","properties":{"name":"Azerbaïdjan","id":"AZE"}},{"arcs":[[-95,-466,-369,-429,466]],"type":"Polygon","properties":{"name":"Géorgie","id":"GEO"}},{"arcs":[[[467]],[[468]]],"type":"MultiPolygon","properties":{"name":"Philippines","id":"PHL"}},{"arcs":[[[-44,469,470,471]],[[-316,472]]],"type":"MultiPolygon","properties":{"name":"Malaisie","id":"MYS"}},{"arcs":[[-471,473]],"type":"Polygon","properties":{"name":"Brunei","id":"BRN"}},{"arcs":[[-391,-400,-439,474,-459]],"type":"Polygon","properties":{"name":"Slovénie","id":"SVN"}},{"arcs":[[-102,475,-371,-116]],"type":"Polygon","properties":{"name":"Finlande","id":"FIN"}},{"arcs":[[-383,-401,-396,476,-385]],"type":"Polygon","properties":{"name":"Slovaquie","id":"SVK"}},{"arcs":[[-386,-477,-395,-411]],"type":"Polygon","properties":{"name":"Tchéquie","id":"CZE"}},{"arcs":[[-83,477,478,479]],"type":"Polygon","properties":{"name":"Érythrée","id":"ERI"}},{"arcs":[[480]],"type":"Polygon","properties":{"name":"Japon","id":"JPN"}},{"arcs":[[-136,-54,-145]],"type":"Polygon","properties":{"name":"Paraguay","id":"PRY"}},{"arcs":[[-308,481,482]],"type":"Polygon","properties":{"name":"Yémen","id":"YEM"}},{"arcs":[[-289,-305,-299,483,-297,484,-295,-309,-483,485]],"type":"Polygon","properties":{"name":"Arabie saoudite","id":"SAU"}},{"arcs":[[486]],"type":"Polygon","properties":{"name":"Antarctique","id":"ATA"}},{"arcs":[[487,488]],"type":"Polygon","properties":{"name":"Chypre du Nord","id":"CYN"}},{"arcs":[[-489,489]],"type":"Polygon","properties":{"name":"Chypre","id":"CYP"}},{"arcs":[[-284,-14,490]],"type":"Polygon","properties":{"name":"Maroc","id":"MAR"}},{"arcs":[[-81,491,492,-272,493]],"type":"Polygon","properties":{"name":"Égypte","id":"EGY"}},{"arcs":[[-80,-89,-225,-286,-283,494,-492]],"type":"Polygon","properties":{"name":"Libye","id":"LBY"}},{"arcs":[[-71,-76,495,-84,-480,496,497]],"type":"Polygon","properties":{"name":"Éthiopie","id":"ETH"}},{"arcs":[[-479,498,499,-497]],"type":"Polygon","properties":{"name":"Djibouti","id":"DJI"}},{"arcs":[[-72,-498,-500,500]],"type":"Polygon","properties":{"name":"Somaliland","id":"SOL"}},{"arcs":[[-10,501,-67,502,-74]],"type":"Polygon","properties":{"name":"Ouganda","id":"UGA"}},{"arcs":[[-9,-267,-68,-502]],"type":"Polygon","properties":{"name":"Rwanda","id":"RWA"}},{"arcs":[[-436,503,504]],"type":"Polygon","properties":{"name":"Bosnie-Herzégovine","id":"BIH"}},{"arcs":[[-422,-427,-434,505,506]],"type":"Polygon","properties":{"name":"Macédoine du Nord","id":"MKD"}},{"arcs":[[-398,-405,-423,-507,507,508,-504,-435]],"type":"Polygon","properties":{"name":"Serbie","id":"SRB"}},{"arcs":[[-432,509,-437,-505,-509,510]],"type":"Polygon","properties":{"name":"Monténégro","id":"MNE"}},{"arcs":[[-433,-511,-508,-506]],"type":"Polygon","properties":{"name":"Kosovo","id":"KOS"}},{"arcs":[[511]],"type":"Polygon","properties":{"name":"Trinité-et-Tobago","id":"TTO"}},{"arcs":[[-66,-252,-85,-496,-75,-503]],"type":"Polygon","properties":{"name":"Soudan du Sud","id":"SDS"}}]}}}